{
  "norad_id": 65900,
  "name": "STARLINK-35264",
  "history": [
    {
      "epoch": "2026-03-28T20:38:09.830400",
      "apogee_km": 475.88875645515236,
      "perigee_km": 474.4797136092293,
      "latitude_deg": 8.65357377807225,
      "longitude_deg": 132.54425600008108,
      "semi_major_axis_km": 6853.32123503219,
      "eccentricity": 0.0001028,
      "inclination_deg": 53.1593,
      "raan_deg": 281.9919,
      "arg_perigee_deg": 82.106,
      "mean_anomaly_deg": 278.0057,
      "mean_motion_rev_day": 15.30210327
    }
  ]
}